ORBCOMM FM20            
1 25416U 98046D   25260.98134668  .00000680  00000+0  27263-3 0  9991
2 25416  44.9936 101.7681 0001340  59.2865 300.8115 14.37372808417612
ORBCOMM FM16            
1 25417U 98046E   25261.00459690  .00001043  00000+0  37940-3 0  9998
2 25417  44.9931  91.9914 0004866  55.1136 305.0169 14.39134663417623
ORBCOMM FM15            
1 25418U 98046F   25261.00384794  .00000907  00000+0  33861-3 0  9997
2 25418  44.9962  97.4193 0004605  54.3465 305.7811 14.38775568417619
ORBCOMM FM14            
1 25419U 98046G   25261.06733194  .00000956  00000+0  35162-3 0  9996
2 25419  44.9952  95.0835 0003353  53.3024 306.8133 14.39153173417594
ORBCOMM FM13            
1 25420U 98046H   25261.05477329  .00000834  00000+0  32052-3 0  9992
2 25420  44.9968 104.0359 0005419  30.8833 329.2333 14.37864185416600
ORBCOMM FM21            
1 25475U 98053A   25261.15227843  .00000722  00000+0  28606-3 0  9991
2 25475  45.0076 189.1914 0003223 330.3549  29.7116 14.37511948410629
ORBCOMM FM22            
1 25476U 98053B   25261.19015766  .00000980  00000+0  36330-3 0  9994
2 25476  45.0069 183.1010 0004943 333.8304  26.2294 14.38600033410668
ORBCOMM FM23            
1 25477U 98053C   25261.14065304  .00000917  00000+0  34903-3 0  9997
2 25477  45.0077 191.2331 0004259 327.3039  32.7545 14.37716242410779
